{
    "links": {
        "self": "http://www.neowsapp.com/rest/v1/neo/3724114?api_key=iIulBulltgU6a56xZRHN4H3l9WmuAYTsLGpBGhQ2"
    },
    "id": "3724114",
    "neo_reference_id": "3724114",
    "name": "(2015 NZ22)",
    "designation": "2015 NZ22",
    "nasa_jpl_url": "http://ssd.jpl.nasa.gov/sbdb.cgi?sstr=3724114",
    "absolute_magnitude_h": 22.6,
    "estimated_diameter": {
        "kilometers": {
            "estimated_diameter_min": 0.0802703167,
            "estimated_diameter_max": 0.1794898848
        },
        "meters": {
            "estimated_diameter_min": 80.2703167283,
            "estimated_diameter_max": 179.4898847799
        },
        "miles": {
            "estimated_diameter_min": 0.049877647,
            "estimated_diameter_max": 0.1115298092
        },
        "feet": {
            "estimated_diameter_min": 263.3540659348,
            "estimated_diameter_max": 588.8775935812
        }
    },
    "is_potentially_hazardous_asteroid": false,
    "close_approach_data": [
        {
            "close_approach_date": "2015-08-25",
            "close_approach_date_full": "2015-Aug-25 16:52",
            "epoch_date_close_approach": 1440521520000,
            "relative_velocity": {
                "kilometers_per_second": "10.7269391586",
                "kilometers_per_hour": "38616.9809710738",
                "miles_per_hour": "23995.090203943"
            },
            "miss_distance": {
                "astronomical": "0.2735011699",
                "lunar": "106.3919550911",
                "kilometers": "40915192.459548113",
                "miles": "25423521.6899974394"
            },
            "orbiting_body": "Earth"
        },
        {
            "close_approach_date": "2015-10-13",
            "close_approach_date_full": "2015-Oct-13 05:36",
            "epoch_date_close_approach": 1444714560000,
            "relative_velocity": {
                "kilometers_per_second": "14.8469236646",
                "kilometers_per_hour": "53448.9251926226",
                "miles_per_hour": "33211.0835453827"
            },
            "miss_distance": {
                "astronomical": "0.1307691807",
                "lunar": "50.8692112923",
                "kilometers": "19562790.894365109",
                "miles": "12155754.5919281442"
            },
            "orbiting_body": "Venus"
        }
    ],
    "orbital_data": {
        "orbit_id": "3",
        "orbit_determination_date": "2017-04-06 08:32:45",
        "first_observation_date": "2015-07-12",
        "last_observation_date": "2015-07-17",
        "data_arc_in_days": 5,
        "observations_used": 11,
        "orbit_uncertainty": "9",
        "minimum_orbit_intersection": ".10172",
        "jupiter_tisserand_invariant": "4.664",
        "epoch_osculation": "2457216.5",
        "eccentricity": ".5653016506851076",
        "semi_major_axis": "1.3601042877437",
        "inclination": "6.412682883308825",
        "ascending_node_longitude": "242.4410945885826",
        "orbital_period": "579.3709844696642",
        "perihelion_distance": ".5912350887782939",
        "perihelion_argument": "162.718317941565",
        "aphelion_distance": "2.128973486709107",
        "perihelion_time": "2457303.845884480157",
        "mean_anomaly": "305.7264529019524",
        "mean_motion": ".6213635298452705",
        "equinox": "J2000",
        "orbit_class": {
            "orbit_class_type": "APO",
            "orbit_class_description": "Near-Earth asteroid orbits which cross the Earth’s orbit similar to that of 1862 Apollo",
            "orbit_class_range": "a (semi-major axis) > 1.0 AU; q (perihelion) < 1.017 AU"
        }
    },
    "is_sentry_object": false
}